ONEWEB-0363             
1 49289U 21090L   26004.83298995 -.00000179  00000+0 -47259-3 0  9997
2 49289  87.9226 307.0211 0002053  80.9984 279.1382 13.20771641208745
ONEWEB-0364             
1 49290U 21090M   26004.87087188 -.00000067  00000+0 -19608-3 0  9996
2 49290  87.9216 307.0347 0001838  79.0490 281.0850 13.20771294209889
ONEWEB-0365             
1 49291U 21090N   26004.95316129 -.00000005  00000+0 -44604-4 0  9993
2 49291  87.9228 337.4330 0001681  79.3681 280.7641 13.19726210204899
ONEWEB-0366             
1 49292U 21090P   26004.93487450  .00000152  00000+0  37647-3 0  9997
2 49292  87.9006 322.2465 0001744  80.6786 279.4541 13.14505056206115
ONEWEB-0367             
1 49293U 21090Q   26004.90717772  .00000051  00000+0  93221-4 0  9997
2 49293  87.9228 307.0059 0001570  73.5057 286.6249 13.20771664208272
ONEWEB-0368             
1 49294U 21090R   26004.88035145 -.00000070  00000+0 -20288-3 0  9997
2 49294  87.9219 307.0387 0002430  65.8979 294.2409 13.20772182209427
ONEWEB-0369             
1 49295U 21090S   26004.94840309 -.00000118  00000+0 -32791-3 0  9996
2 49295  87.9216 337.4583 0001773  79.5477 280.5855 13.19724189204884
ONEWEB-0370             
1 49296U 21090T   26004.84088666 -.00000117  00000+0 -31916-3 0  9993
2 49296  87.9226 307.0222 0001432  83.3323 276.7973 13.20771354208301
